{
  "type": "FeatureCollection",
  "name": "point_state_park_site_bounds",
  "crs": {
    "type": "name",
    "properties": { "name": "urn:ogc:def:crs:OGC:1.3:CRS84" }
  },
  "metadata": {
    "site": "Point State Park, Pittsburgh, PA",
    "status": "PLACEHOLDER",
    "note": "Generated because no Pittsburgh point cloud (.ply/.las/.laz/.splat/.spz) exists in any reachable repository. Replace with a real scan and update manifest.json.",
    "anchor": { "latitude": 40.4417, "longitude": -80.0075, "height_m": 186.0 },
    "vertical_datum": "WGS84 ellipsoidal (EGM96 geoid separation for western PA is approx -33 m)"
  },
  "features": [
    {
      "type": "Feature",
      "id": "site_bounds",
      "properties": {
        "name": "Point State Park -- festival site bounding volume",
        "kind": "bounding_box",
        "base_height_m": 183.0,
        "top_height_m": 213.0,
        "extent_east_west_m": 635.0,
        "extent_north_south_m": 390.0,
        "description": "Working site envelope: the park triangle at the Allegheny/Monongahela confluence plus its immediate load-in apron. 30 m of vertical headroom covers ground-support towers and rigging."
      },
      "geometry": {
        "type": "Polygon",
        "coordinates": [
          [
            [-80.0115, 40.4400],
            [-80.0040, 40.4400],
            [-80.0040, 40.4435],
            [-80.0115, 40.4435],
            [-80.0115, 40.4400]
          ]
        ]
      }
    },
    {
      "type": "Feature",
      "id": "confluence_point",
      "properties": {
        "name": "The Point -- fountain / confluence datum",
        "kind": "landmark"
      },
      "geometry": { "type": "Point", "coordinates": [-80.0098, 40.4417] }
    }
  ]
}
